QIANFAN-81              
1 63167U 25046J   25220.57994486  .00000129  00000+0  18124-3 0  9993
2 63167  88.9863 332.8745 0016626 123.6511 236.6229 13.50961874 30455
QIANFAN-82              
1 63168U 25046K   25220.61273250  .00000135  00000+0  19018-3 0  9998
2 63168  88.9863 332.9146 0014680 130.2736 229.9701 13.50958755 30446
QIANFAN-83              
1 63169U 25046L   25220.55457426  .00000164  00000+0  19701-3 0  9992
2 63169  88.9863 332.9439 0016062 123.5534 236.7160 13.61933177 30425
QIANFAN-84              
1 63170U 25046M   25220.56750534  .00000152  00000+0  21612-3 0  9992
2 63170  88.9863 333.0523 0017689 127.6351 232.6408 13.50965798 30366
QIANFAN-85              
1 63171U 25046N   25220.56347222  .00000129  00000+0  18053-3 0  9998
2 63171  88.9863 332.9250 0015043 129.5042 230.7442 13.50959715 30439
QIANFAN-86              
1 63172U 25046P   25220.57169815  .00000139  00000+0  19660-3 0  9996
2 63172  88.9865 332.7833 0012871 132.7241 227.4996 13.50960164 30516
QIANFAN-87              
1 63173U 25046Q   25220.54279397  .00000104  00000+0  14205-3 0  9993
2 63173  88.9861 332.9027 0013639 128.5639 231.6736 13.50957881 30440
QIANFAN-88              
1 63174U 25046R   25220.55942611  .00000143  00000+0  20255-3 0  9996
2 63174  88.9863 332.8524 0013911 135.6372 224.5896 13.50964250 30479
